CCSDS_OMM_VERS = 2.0
CREATION_DATE  = 
ORIGINATOR     = 

OBJECT_NAME    = UNKNOWN
OBJECT_ID      = 
CENTER_NAME    = EARTH
REF_FRAME      = TEME
TIME_SYSTEM    = UTC
MEAN_ELEMENT_THEORY = SGP/SGP4

EPOCH          = 2026-03-05T13:06:53.594496
MEAN_MOTION    = 14.25114113
ECCENTRICITY   = .004039
INCLINATION    = 99.9951
RA_OF_ASC_NODE = 335.0825
ARG_OF_PERICENTER = 51.7372
MEAN_ANOMALY   = 308.7426

EPHEMERIS_TYPE = 0
CLASSIFICATION_TYPE = U
NORAD_CAT_ID   = 82873
ELEMENT_SET_NO = 999
REV_AT_EPOCH   = 63302
BSTAR          = .20549E-2
MEAN_MOTION_DOT = .481E-4
MEAN_MOTION_DDOT = 0

CCSDS_OMM_VERS = 2.0
CREATION_DATE  = 
ORIGINATOR     = 

OBJECT_NAME    = UNKNOWN
OBJECT_ID      = 
CENTER_NAME    = EARTH
REF_FRAME      = TEME
TIME_SYSTEM    = UTC
MEAN_ELEMENT_THEORY = SGP/SGP4

EPOCH          = 2026-02-28T16:06:13.361472
MEAN_MOTION    = 14.15279139
ECCENTRICITY   = .0379432
INCLINATION    = 98.6848
RA_OF_ASC_NODE = 46.1356
ARG_OF_PERICENTER = 59.5304
MEAN_ANOMALY   = 304.2774

EPHEMERIS_TYPE = 0
CLASSIFICATION_TYPE = U
NORAD_CAT_ID   = 82875
ELEMENT_SET_NO = 999
REV_AT_EPOCH   = 55549
BSTAR          = .3026E-3
MEAN_MOTION_DOT = .1137E-4
MEAN_MOTION_DDOT = 0

CCSDS_OMM_VERS = 2.0
CREATION_DATE  = 
ORIGINATOR     = 

OBJECT_NAME    = UNKNOWN
OBJECT_ID      = 
CENTER_NAME    = EARTH
REF_FRAME      = TEME
TIME_SYSTEM    = UTC
MEAN_ELEMENT_THEORY = SGP/SGP4

EPOCH          = 2026-03-06T18:38:50.735040
MEAN_MOTION    = 14.33265410
ECCENTRICITY   = .0027608
INCLINATION    = 98.9600
RA_OF_ASC_NODE = 188.6664
ARG_OF_PERICENTER = 161.2583
MEAN_ANOMALY   = 198.9623

EPHEMERIS_TYPE = 0
CLASSIFICATION_TYPE = U
NORAD_CAT_ID   = 82893
ELEMENT_SET_NO = 999
REV_AT_EPOCH   = 43600
BSTAR          = .4272E-2
MEAN_MOTION_DOT = .11776E-3
MEAN_MOTION_DDOT = 0

CCSDS_OMM_VERS = 2.0
CREATION_DATE  = 
ORIGINATOR     = 

OBJECT_NAME    = UNKNOWN
OBJECT_ID      = 
CENTER_NAME    = EARTH
REF_FRAME      = TEME
TIME_SYSTEM    = UTC
MEAN_ELEMENT_THEORY = SGP/SGP4

EPOCH          = 2026-03-07T10:46:35.325408
MEAN_MOTION    = 13.28396779
ECCENTRICITY   = .0771869
INCLINATION    = 65.8427
RA_OF_ASC_NODE = 338.9473
ARG_OF_PERICENTER = 230.4964
MEAN_ANOMALY   = 122.5362

EPHEMERIS_TYPE = 0
CLASSIFICATION_TYPE = U
NORAD_CAT_ID   = 82912
ELEMENT_SET_NO = 999
REV_AT_EPOCH   = 59057
BSTAR          = .9698E-3
MEAN_MOTION_DOT = .2309E-4
MEAN_MOTION_DDOT = 0

CCSDS_OMM_VERS = 2.0
CREATION_DATE  = 
ORIGINATOR     = 

OBJECT_NAME    = UNKNOWN
OBJECT_ID      = 
CENTER_NAME    = EARTH
REF_FRAME      = TEME
TIME_SYSTEM    = UTC
MEAN_ELEMENT_THEORY = SGP/SGP4

EPOCH          = 2026-03-05T09:29:07.517760
MEAN_MOTION    = 13.25951502
ECCENTRICITY   = .0426273
INCLINATION    = 99.8287
RA_OF_ASC_NODE = 219.6581
ARG_OF_PERICENTER = 172.8671
MEAN_ANOMALY   = 187.8782

EPHEMERIS_TYPE = 0
CLASSIFICATION_TYPE = U
NORAD_CAT_ID   = 82961
ELEMENT_SET_NO = 999
REV_AT_EPOCH   = 56665
BSTAR          = .26219E-1
MEAN_MOTION_DOT = .18813E-3
MEAN_MOTION_DDOT = 0

CCSDS_OMM_VERS = 2.0
CREATION_DATE  = 
ORIGINATOR     = 

OBJECT_NAME    = UNKNOWN
OBJECT_ID      = 
CENTER_NAME    = EARTH
REF_FRAME      = TEME
TIME_SYSTEM    = UTC
MEAN_ELEMENT_THEORY = SGP/SGP4

EPOCH          = 2026-03-06T16:35:05.451648
MEAN_MOTION    = 13.60215145
ECCENTRICITY   = .000329
INCLINATION    = 100.1082
RA_OF_ASC_NODE = 152.9323
ARG_OF_PERICENTER = 184.7673
MEAN_ANOMALY   = 175.3435

EPHEMERIS_TYPE = 0
CLASSIFICATION_TYPE = U
NORAD_CAT_ID   = 82965
ELEMENT_SET_NO = 999
REV_AT_EPOCH   = 53586
BSTAR          = .17184E-2
MEAN_MOTION_DOT = .1239E-4
MEAN_MOTION_DDOT = 0

CCSDS_OMM_VERS = 2.0
CREATION_DATE  = 
ORIGINATOR     = 

OBJECT_NAME    = UNKNOWN
OBJECT_ID      = 
CENTER_NAME    = EARTH
REF_FRAME      = TEME
TIME_SYSTEM    = UTC
MEAN_ELEMENT_THEORY = SGP/SGP4

EPOCH          = 2026-03-07T14:15:39.511584
MEAN_MOTION    = 0.99113353
ECCENTRICITY   = .0122146
INCLINATION    = 5.9757
RA_OF_ASC_NODE = 289.8760
ARG_OF_PERICENTER = 253.7944
MEAN_ANOMALY   = 304.9177

EPHEMERIS_TYPE = 0
CLASSIFICATION_TYPE = U
NORAD_CAT_ID   = 83903
ELEMENT_SET_NO = 999
REV_AT_EPOCH   = 4450
BSTAR          = 0
MEAN_MOTION_DOT = -.293E-5
MEAN_MOTION_DDOT = 0

CCSDS_OMM_VERS = 2.0
CREATION_DATE  = 
ORIGINATOR     = 

OBJECT_NAME    = UNKNOWN
OBJECT_ID      = 
CENTER_NAME    = EARTH
REF_FRAME      = TEME
TIME_SYSTEM    = UTC
MEAN_ELEMENT_THEORY = SGP/SGP4

EPOCH          = 2026-03-06T19:20:33.510624
MEAN_MOTION    = 1.02664015
ECCENTRICITY   = .0224256
INCLINATION    = 5.5945
RA_OF_ASC_NODE = 296.9645
ARG_OF_PERICENTER = 275.8166
MEAN_ANOMALY   = 296.6474

EPHEMERIS_TYPE = 0
CLASSIFICATION_TYPE = U
NORAD_CAT_ID   = 83934
ELEMENT_SET_NO = 999
REV_AT_EPOCH   = 4614
BSTAR          = 0
MEAN_MOTION_DOT = -.243E-5
MEAN_MOTION_DDOT = 0

CCSDS_OMM_VERS = 2.0
CREATION_DATE  = 
ORIGINATOR     = 

OBJECT_NAME    = UNKNOWN
OBJECT_ID      = 
CENTER_NAME    = EARTH
REF_FRAME      = TEME
TIME_SYSTEM    = UTC
MEAN_ELEMENT_THEORY = SGP/SGP4

EPOCH          = 2026-03-05T09:56:02.065056
MEAN_MOTION    = 2.16232214
ECCENTRICITY   = .6164632
INCLINATION    = 22.3795
RA_OF_ASC_NODE = 160.6155
ARG_OF_PERICENTER = 89.6943
MEAN_ANOMALY   = 335.9169

EPHEMERIS_TYPE = 0
CLASSIFICATION_TYPE = U
NORAD_CAT_ID   = 84006
ELEMENT_SET_NO = 999
REV_AT_EPOCH   = 8601
BSTAR          = 0
MEAN_MOTION_DOT = .4E-7
MEAN_MOTION_DDOT = 0

CCSDS_OMM_VERS = 2.0
CREATION_DATE  = 
ORIGINATOR     = 

OBJECT_NAME    = UNKNOWN
OBJECT_ID      = 
CENTER_NAME    = EARTH
REF_FRAME      = TEME
TIME_SYSTEM    = UTC
MEAN_ELEMENT_THEORY = SGP/SGP4

EPOCH          = 2026-03-03T08:35:36.434976
MEAN_MOTION    = 8.03354809
ECCENTRICITY   = .3516471
INCLINATION    = 64.8752
RA_OF_ASC_NODE = 184.3796
ARG_OF_PERICENTER = 9.3248
MEAN_ANOMALY   = 355.8429

EPHEMERIS_TYPE = 0
CLASSIFICATION_TYPE = U
NORAD_CAT_ID   = 84188
ELEMENT_SET_NO = 999
REV_AT_EPOCH   = 4759
BSTAR          = .92896E-1
MEAN_MOTION_DOT = .182396E-2
MEAN_MOTION_DDOT = 0

CCSDS_OMM_VERS = 2.0
CREATION_DATE  = 
ORIGINATOR     = 

OBJECT_NAME    = UNKNOWN
OBJECT_ID      = 
CENTER_NAME    = EARTH
REF_FRAME      = TEME
TIME_SYSTEM    = UTC
MEAN_ELEMENT_THEORY = SGP/SGP4

EPOCH          = 2026-03-06T19:24:30.555936
MEAN_MOTION    = 3.21528391
ECCENTRICITY   = .6534833
INCLINATION    = 20.3229
RA_OF_ASC_NODE = 225.4703
ARG_OF_PERICENTER = 152.3420
MEAN_ANOMALY   = 267.7957

EPHEMERIS_TYPE = 0
CLASSIFICATION_TYPE = U
NORAD_CAT_ID   = 84232
ELEMENT_SET_NO = 999
REV_AT_EPOCH   = 10737
BSTAR          = .34382E-1
MEAN_MOTION_DOT = .48042E-3
MEAN_MOTION_DDOT = 0

