UNKNOWN                 
1 82873U          26064.54645364  .00004810  00000+0  20549-2 0  9997
2 82873  99.9951 335.0825 0040390  51.7372 308.7426 14.25114113633026
UNKNOWN                 
1 82875U          26059.67098798  .00001137  00000+0  30260-3 0  9991
2 82875  98.6848  46.1356 0379432  59.5304 304.2774 14.15279139555491
UNKNOWN                 
1 82893U          26065.77697610  .00011776  00000+0  42720-2 0  9990
2 82893  98.9600 188.6664 0027608 161.2583 198.9623 14.33265410436002
UNKNOWN                 
1 82912U          26066.44901997  .00002309  00000+0  96980-3 0  9993
2 82912  65.8427 338.9473 0771869 230.4964 122.5362 13.28396779590571
UNKNOWN                 
1 82961U          26064.39522590  .00018813  00000+0  26219-1 0  9990
2 82961  99.8287 219.6581 0426273 172.8671 187.8782 13.25951502566651
UNKNOWN                 
1 82965U          26065.69103532  .00001239  00000+0  17184-2 0  9995
2 82965 100.1082 152.9323 0003290 184.7673 175.3435 13.60215145535862
UNKNOWN                 
1 83903U          26066.59420731 -.00000293  00000+0  00000+0 0  9997
2 83903   5.9757 289.8760 0122146 253.7944 304.9177  0.99113353 44506
UNKNOWN                 
1 83934U          26065.80594341 -.00000243  00000+0  00000+0 0  9998
2 83934   5.5945 296.9645 0224256 275.8166 296.6474  1.02664015 46142
UNKNOWN                 
1 84006U          26064.41391279  .00000004  00000+0  00000+0 0  9994
2 84006  22.3795 160.6155 6164632  89.6943 335.9169  2.16232214 86013
UNKNOWN                 
1 84188U          26062.35806059  .00182396  00000+0  92896-1 0  9994
2 84188  64.8752 184.3796 3516471   9.3248 355.8429  8.03354809 47595
UNKNOWN                 
1 84232U          26065.80868699  .00048042  00000+0  34382-1 0  9990
2 84232  20.3229 225.4703 6534833 152.3420 267.7957  3.21528391107376
